BEIDOU 3 (C01)          
1 36287U 10001A   22037.56969656 -.00000285  00000+0  00000+0 0  9998
2 36287   1.8572  47.0310 0001889  26.4629  48.6506  1.00271886 44203
BEIDOU 5 (C06)          
1 36828U 10036A   22037.18382619 -.00000110  00000+0  00000+0 0  9990
2 36828  54.1909 177.4327 0027462 179.4144 313.6234  1.00284373 42263
BEIDOU 6 (C04)          
1 37210U 10057A   22037.62386014 -.00000116  00000+0  00000+0 0  9997
2 37210   0.9324  52.4143 0004907 159.9573 308.9552  1.00271817 41320
BEIDOU 7 (C07)          
1 37256U 10068A   22037.42160961 -.00000192  00000+0  00000+0 0  9992
2 37256  50.4447 291.2136 0017549 188.2095 276.0879  1.00291405 40838
BEIDOU 8 (C08)          
1 37384U 11013A   22034.57274473 -.00000167  00000+0  00000+0 0  9994
2 37384  60.1035  55.5883 0020893 194.2425 197.4212  1.00291202 39684
BEIDOU 9 (C09)          
1 37763U 11038A   22037.18688405 -.00000056  00000+0  00000+0 0  9993
2 37763  54.4753 179.9091 0088155 225.2436 252.8609  1.00261796 38682
BEIDOU 10 (C10)         
1 37948U 11073A   22037.06056821 -.00000146  00000+0  00000+0 0  9995
2 37948  50.5584 290.8532 0077124 218.9189 103.7007  1.00282337 37439
BEIDOU 11 (C05)         
1 38091U 12008A   22037.55338676  .00000053  00000+0  00000+0 0  9995
2 38091   2.0729  72.1553 0008108 284.5549  37.8782  1.00268508 36510
BEIDOU 12 (C11)         
1 38250U 12018A   22037.25659191 -.00000104  00000+0  00000+0 0  9996
2 38250  56.7257 357.8928 0024170 256.1442 192.7126  1.86234350 66644
BEIDOU 13 (C12)         
1 38251U 12018B   22037.21306811 -.00000104  00000+0  00000+0 0  9991
2 38251  56.6460 357.2280 0015248 261.2071 202.7428  1.86234195 66640
BEIDOU 15 (C14)         
1 38775U 12050B   22037.25561003 -.00000034  00000+0  00000+0 0  9990
2 38775  55.3258 116.1031 0012836 320.6647   8.6037  1.86231276 64012
BEIDOU 16 (C02)         
1 38953U 12059A   22035.81661897 -.00000184  00000+0  00000+0 0  9995
2 38953   1.6623  84.6723 0012543 281.0583 147.2078  1.00272149 34079
BEIDOU 17 (C31)         
1 40549U 15019A   22033.61980693 -.00000181  00000+0  00000+0 0  9999
2 40549  52.1163 314.3225 0035519 190.7172 307.0484  1.00271426 25086
BEIDOU 18 (C57)         
1 40748U 15037A   22037.29180808 -.00000106  00000+0  00000+0 0  9995
2 40748  55.9015 356.1699 0004869 341.5710  84.8045  1.86233317 44479
BEIDOU 19 (C58)         
1 40749U 15037B   22036.62916171 -.00000105  00000+0  00000+0 0  9991
2 40749  55.9052 356.1823 0007065 316.0064 161.1468  1.86231963 44451
BEIDOU 20 (C18)         
1 40938U 15053A   22037.06378694 -.00000117  00000+0  00000+0 0  9993
2 40938  51.7007 277.3819 0043038 193.4415 144.5823  1.00276266 23381
BEIDOU IGSO-6 (C13)     
1 41434U 16021A   22037.44654122 -.00000143  00000+0  00000+0 0  9995
2 41434  57.9105  54.1913 0044595 218.3556 120.0542  1.00267432 21513
BEIDOU-2 G7 (C03)       
1 41586U 16037A   22037.49198512 -.00000358  00000+0  00000+0 0  9999
2 41586   1.6874  67.5529 0008527 359.1272 357.5507  1.00270119 20822
BEIDOU-3 M1 (C19)       
1 43001U 17069A   22036.52946010 -.00000027  00000+0  00000+0 0  9999
2 43001  55.4789 116.1106 0009764 284.4642  74.1112  1.86231594 28937
BEIDOU-3 M2 (C20)       
1 43002U 17069B   22036.56000322 -.00000027  00000+0  00000+0 0  9991
2 43002  55.4775 116.1460 0007599 306.7423 115.4893  1.86231354 28934
BEIDOU-3 M3 (C27)       
1 43107U 18003A   22037.55340374 -.00000107  00000+0  00000+0 0  9999
2 43107  55.3496 357.1369 0004323  36.0304 138.2314  1.86232441 27711
BEIDOU-3 M4 (C28)       
1 43108U 18003B   22037.38328911 -.00000107  00000+0  00000+0 0  9994
2 43108  55.3422 357.1326 0003824 267.8588 196.9723  1.86230872 27718
BEIDOU-3 M5 (C21)       
1 43207U 18018A   22036.59934007 -.00000027  00000+0  00000+0 0  9992
2 43207  55.4381 116.2268 0004692 329.4845  30.5343  1.86231488 27082
BEIDOU-3 M6 (C22)       
1 43208U 18018B   22036.66601239 -.00000028  00000+0  00000+0 0  9990
2 43208  55.4364 116.2290 0007589 294.1699  65.7969  1.86231655 27082
BEIDOU-3 M7 (C29)       
1 43245U 18029A   22036.45944197 -.00000106  00000+0  00000+0 0  9990
2 43245  55.2698 354.9517 0001489 310.9421 120.2143  1.86232541 26239
BEIDOU-3 M8 (C30)       
1 43246U 18029B   22035.59886810 -.00000106  00000+0  10000-3 0  9997
2 43246  55.2676 355.0124 0004919 343.5074 277.0993  1.86232778 26202
BEIDOU IGSO-7 (C16)     
1 43539U 18057A   22036.86789381 -.00000112  00000+0  00000+0 0  9991
2 43539  55.0713 176.8673 0041278 220.6828 161.1667  1.00250240 13191
BEIDOU-3 M9 (C23)       
1 43581U 18062A   22037.35280962  .00000050  00000+0  00000+0 0  9990
2 43581  54.3173 236.5748 0002516 327.2985 239.8839  1.86231879 23980
BEIDOU-3 M10 (C24)      
1 43582U 18062B   22037.54277391  .00000053  00000+0  00000+0 0  9997
2 43582  54.3166 236.5583 0006955  20.4062  45.8042  1.86232240 23994
BEIDOU-3 M11 (C25)      
1 43602U 18067A   22036.07559082  .00000039  00000+0  00000+0 0  9996
2 43602  54.3972 235.2113 0007967  13.4768 190.6848  1.86231595 23452
BEIDOU-3 M12 (C26)      
1 43603U 18067B   22037.21145369  .00000050  00000+0  00000+0 0  9996
2 43603  54.3937 235.1394 0004999   9.3575 146.7534  1.86231533 23496
BEIDOU-3 M13 (C32)      
1 43622U 18072A   22037.47748625 -.00000036  00000+0  00000+0 0  9990
2 43622  55.4043 115.7576 0006486 277.3038  86.8520  1.86231431 23010
BEIDOU-3 M14 (C33)      
1 43623U 18072B   22036.39933819 -.00000026  00000+0  00000+0 0  9991
2 43623  55.4049 115.7854 0004064 300.1970 151.3462  1.86231427 22990
BEIDOU-3 M15 (C34)      
1 43647U 18078A   22036.55255647 -.00000107  00000+0  10000-3 0  9992
2 43647  55.1642 355.1191 0007389 352.2590  97.3826  1.86232500 22508
BEIDOU-3 M16 (C35)      
1 43648U 18078B   22037.28934758 -.00000107  00000+0  00000+0 0  9996
2 43648  55.1612 355.1006 0005080 357.4833 134.1838  1.86232213 22531
BEIDOU-3 G1 (C59)       
1 43683U 18085A   22037.49782875 -.00000284  00000+0  00000+0 0  9993
2 43683   0.8404 189.8144 0002113  33.3275 232.5854  1.00267105 12090
BEIDOU-3 M17 (C36)      
1 43706U 18093A   22036.17133159  .00000039  00000+0  00000+0 0  9994
2 43706  54.3990 236.4896 0007187 285.3409  74.5977  1.86231980 21879
BEIDOU-3 M18 (C37)      
1 43707U 18093B   22036.96716689  .00000046  00000+0  00000+0 0  9995
2 43707  54.3992 236.4538 0007232 320.3401 304.2670  1.86232152 21873
BEIDOU-3 IGSO-1 (C38)   
1 44204U 19023A   22036.86166233 -.00000206  00000+0  00000+0 0  9994
2 44204  56.3617  54.3827 0021472 204.3479 303.9607  1.00298014 10394
BEIDOU-2 G8             
1 44231U 19027A   22037.61143884 -.00000251  00000+0  00000+0 0  9999
2 44231   0.5589  67.4106 0005816 144.4876 289.4773  1.00270978 10118
BEIDOU-3 IGSO-2 (C39)   
1 44337U 19035A   22037.28139880 -.00000122  00000+0  00000+0 0  9996
2 44337  55.1124 172.8930 0022530 187.7865 353.9972  1.00293172  9737
BEIDOU-3 M23 (C45)      
1 44542U 19061A   22035.56971301  .00000035  00000+0  00000+0 0  9996
2 44542  54.6254 236.6262 0008611 353.9419   6.0677  1.86231432 16119
BEIDOU-3 M24 (C46)      
1 44543U 19061B   22037.04979770  .00000047  00000+0  00000+0 0  9993
2 44543  54.6222 236.5465 0005807 351.5658 191.9028  1.86231793 16138
BEIDOU-3 IGSO-3         
1 44709U 19073A   22036.63179498 -.00000182  00000+0  00000+0 0  9994
2 44709  57.4774 297.7539 0019773 175.3558   7.1740  1.00295230  8484
BEIDOU-3 M21            
1 44793U 19078A   22036.16226293 -.00000107  00000+0  10000-3 0  9998
2 44793  55.0131 355.1706 0007066 357.4915 144.5907  1.86232177 14983
BEIDOU-3 M22            
1 44794U 19078B   22036.37216569 -.00000107  00000+0  00000+0 0  9992
2 44794  54.9871 355.1573 0005148 351.1991 203.0238  1.86232684 14980
BEIDOU-3 M19            
1 44864U 19090A   22037.39893843 -.00000035  00000+0  00000+0 0  9993
2 44864  55.3393 115.9777 0016874 265.3232  91.8356  1.86231773 14580
BEIDOU-3 M20            
1 44865U 19090B   22037.24976993 -.00000034  00000+0  00000+0 0  9995
2 44865  55.3406 116.0141 0014851 279.2825  67.7536  1.86231714 14552
BEIDOU-3 G2             
1 45344U 20017A   22037.41409924 -.00000143  00000+0  00000+0 0  9994
2 45344   2.1670 345.8531 0001290  54.3596 325.3934  1.00272527  7306
BEIDOU-3 G3             
1 45807U 20040A   22037.65112204 -.00000356  00000+0  00000+0 0  9998
2 45807   1.7407 300.3636 0008221 348.7750 192.5200  1.00270427  6124
